[{"OBJECT_NAME":"HEAD-1","OBJECT_ID":"2017-072B","EPOCH":"2026-03-10T00:09:55.710720","MEAN_MOTION":14.28734947,"ECCENTRICITY":0.0011073,"INCLINATION":98.9629,"RA_OF_ASC_NODE":84.8369,"ARG_OF_PERICENTER":82.9382,"MEAN_ANOMALY":277.3057,"EPHEMERIS_TYPE":0,"CLASSIFICATION_TYPE":"U","NORAD_CAT_ID":43011,"ELEMENT_SET_NO":999,"REV_AT_EPOCH":43319,"BSTAR":0.00021004086,"MEAN_MOTION_DOT":4.82e-6,"MEAN_MOTION_DDOT":0},{"OBJECT_NAME":"COSMOS 1275 DEB","OBJECT_ID":"1981-053ME","EPOCH":"2026-03-09T03:47:39.111648","MEAN_MOTION":14.18324642,"ECCENTRICITY":0.00612524,"INCLINATION":83.003,"RA_OF_ASC_NODE":306.863,"ARG_OF_PERICENTER":88.6306,"MEAN_ANOMALY":41.3116,"EPHEMERIS_TYPE":0,"CLASSIFICATION_TYPE":"U","NORAD_CAT_ID":19027,"ELEMENT_SET_NO":999,"REV_AT_EPOCH":6765,"BSTAR":0.0025559893,"MEAN_MOTION_DOT":5.381e-5,"MEAN_MOTION_DDOT":0}]
